NORAD_CAT_ID,OBJECT_NAME,OBJECT_TYPE,EPOCH,MEAN_MOTION,ECCENTRICITY,INCLINATION,RA_OF_ASC_NODE,ARG_OF_PERICENTER,MEAN_ANOMALY,BSTAR,MEAN_MOTION_DOT,MEAN_MOTION_DDOT,TLE_LINE0,TLE_LINE1,TLE_LINE2,SEMIMAJOR_AXIS,PERIOD,APOGEE,PERIGEE,DECAYED
52313.0,STARLINK-3749,PAYLOAD,2023-05-22 16:57:42,15.08844964,8.18e-05,53.2176,356.9786,109.5005,250.6075,0.00028801,4.3e-05,0.0,0 STARLINK-3749,1 52313U 22041BE  23142.70674535  .00004300  00000-0  28801-3 0  9991,2 52313  53.2176 356.9786 0000818 109.5005 250.6075 15.08844964 61585,6917.865,95.437,540.296,539.164,0.0
52313.0,STARLINK-3749,PAYLOAD,2023-05-23 05:40:47,15.08840711,8.43e-05,53.2164,354.6003,108.2068,251.9016,-6.4129e-05,-1.308e-05,0.0,0 STARLINK-3749,1 52313U 22041BE  23143.23666635 -.00001308  00000-0 -64129-4 0  9993,2 52313  53.2164 354.6003 0000843 108.2068 251.9016 15.08840711 61666,6917.878,95.438,540.326,539.16,0.0
52313.0,STARLINK-3749,PAYLOAD,2023-05-23 21:34:39,15.08850438,7.21e-05,53.2167,351.6268,104.0852,256.0221,0.00048855,7.498e-05,0.0,0 STARLINK-3749,1 52313U 22041BE  23143.89906424  .00007498  00000-0  48855-3 0  9999,2 52313  53.2167 351.6268 0000721 104.0852 256.0221 15.08850438 61761,6917.848,95.437,540.212,539.215,0.0
52313.0,STARLINK-3749,PAYLOAD,2023-05-24 02:20:48,15.08853473,6.9e-05,53.2166,350.7349,98.7503,261.3567,0.00069012,0.00010717,0.0,0 STARLINK-3749,1 52313U 22041BE  23144.09778362  .00010717  00000-0  69012-3 0  9996,2 52313  53.2166 350.7349 0000690  98.7503 261.3567 15.08853473 61794,6917.839,95.437,540.182,539.227,0.0
52313.0,STARLINK-3749,PAYLOAD,2023-05-24 05:31:35,15.08840434,7.22e-05,53.2167,350.14,94.0194,266.0881,0.00030334,4.543e-05,0.0,0 STARLINK-3749,1 52313U 22041BE  23144.23026664  .00004543  00000-0  30334-3 0  9998,2 52313  53.2167 350.1400 0000722  94.0194 266.0881 15.08840434 61815,6917.879,95.438,540.244,539.245,0.0
52313.0,STARLINK-3749,PAYLOAD,2023-05-24 15:03:54,15.08836572,6.78e-05,53.2167,348.3554,95.7787,264.3282,0.00035331,5.339e-05,0.0,0 STARLINK-3749,1 52313U 22041BE  23144.62770863  .00005339  00000-0  35331-3 0  9994,2 52313  53.2167 348.3554 0000678  95.7787 264.3282 15.08836572 61870,6917.891,95.438,540.225,539.287,0.0
52313.0,STARLINK-3749,PAYLOAD,2023-05-25 18:05:27,15.0885406,7.6e-05,53.2171,343.3006,67.41,292.6973,0.0006702,0.00010399,0.0,0 STARLINK-3749,1 52313U 22041BE  23145.75378619  .00010399  00000-0  67020-3 0  9994,2 52313  53.2171 343.3006 0000760  67.4100 292.6973 15.08854060 62042,6917.837,95.437,540.228,539.177,0.0
52313.0,STARLINK-3749,PAYLOAD,2023-05-25 19:40:50,15.08855148,6.29e-05,53.2172,343.0033,73.7453,286.3609,0.00065014,0.00010079,0.0,0 STARLINK-3749,1 52313U 22041BE  23145.82002497  .00010079  00000-0  65014-3 0  9996,2 52313  53.2172 343.0033 0000629  73.7453 286.3609 15.08855148 62050,6917.834,95.437,540.134,539.264,0.0
52313.0,STARLINK-3749,PAYLOAD,2023-05-26 13:10:04,15.0884394,0.0001247,53.2172,339.7353,54.6391,305.4717,0.0001393,1.93e-05,0.0,0 STARLINK-3749,1 52313U 22041BE  23146.54866670  .00001930  00000-0  13930-3 0  9993,2 52313  53.2172 339.7353 0001247  54.6391 305.4717 15.08843940 62165,6917.868,95.437,540.596,538.871,0.0
52313.0,STARLINK-3749,PAYLOAD,2023-05-26 17:56:14,15.08840945,7.89e-05,53.2174,338.8403,75.8376,284.2704,5.9051e-05,6.52e-06,0.0,0 STARLINK-3749,1 52313U 22041BE  23146.74738695  .00000652  00000-0  59051-4 0  9995,2 52313  53.2174 338.8403 0000789  75.8376 284.2704 15.08840945 62196,6917.878,95.437,540.288,539.197,0.0
52313.0,STARLINK-3749,PAYLOAD,2023-05-26 19:31:37,15.08840706,7.79e-05,53.2174,338.543,77.939,282.169,7.368e-05,8.85e-06,0.0,0 STARLINK-3749,1 52313U 22041BE  23146.81362743  .00000885  00000-0  73680-4 0  9992,2 52313  53.2174 338.5430 0000779  77.9390 282.1690 15.08840706 62209,6917.878,95.438,540.282,539.204,0.0
52313.0,STARLINK-3749,PAYLOAD,2023-05-27 19:22:24,15.08842309,6.57e-05,53.2174,334.0832,97.0129,263.0938,3.4253e-05,2.58e-06,0.0,0 STARLINK-3749,1 52313U 22041BE  23147.80722659  .00000258  00000-0  34253-4 0  9995,2 52313  53.2174 334.0832 0000657  97.0129 263.0938 15.08842309 62354,6917.873,95.437,540.193,539.284,0.0
52313.0,STARLINK-3749,PAYLOAD,2023-05-28 04:54:43,15.08842448,6.51e-05,53.2176,332.2985,91.5583,268.5484,7.4912e-05,9.05e-06,0.0,0 STARLINK-3749,1 52313U 22041BE  23148.20466574  .00000905  00000-0  74912-4 0  9996,2 52313  53.2176 332.2985 0000651  91.5583 268.5484 15.08842448 62419,6917.873,95.437,540.188,539.288,0.0
52313.0,STARLINK-3749,PAYLOAD,2023-05-28 20:48:34,15.08846714,9.34e-05,53.2175,329.3258,98.3568,261.753,9.0032e-05,1.146e-05,0.0,0 STARLINK-3749,1 52313U 22041BE  23148.86706376  .00001146  00000-0  90032-4 0  9994,2 52313  53.2175 329.3258 0000934  98.3568 261.7530 15.08846714 62518,6917.86,95.437,540.371,539.079,0.0
52313.0,STARLINK-3749,PAYLOAD,2023-05-29 12:42:26,15.08836137,6.84e-05,53.2179,326.3506,97.87,262.237,1.7655e-05,-7e-08,0.0,0 STARLINK-3749,1 52313U 22041BE  23149.52947344 -.00000007  00000-0  17655-4 0  9996,2 52313  53.2179 326.3506 0000684  97.8700 262.2370 15.08836137 62616,6917.892,95.438,540.23,539.284,0.0
52313.0,STARLINK-3749,PAYLOAD,2023-05-29 17:28:35,15.08839163,6.71e-05,53.2179,325.4585,97.6046,262.5022,3.5865e-05,2.83e-06,0.0,0 STARLINK-3749,1 52313U 22041BE  23149.72819073  .00000283  00000-0  35865-4 0  9993,2 52313  53.2179 325.4585 0000671  97.6046 262.5022 15.08839163 62642,6917.883,95.438,540.212,539.284,0.0
52313.0,STARLINK-3749,PAYLOAD,2023-05-29 20:39:21,15.08842418,7.07e-05,53.2178,324.8641,95.8607,264.2466,6.2754e-05,7.11e-06,0.0,0 STARLINK-3749,1 52313U 22041BE  23149.86066814  .00000711  00000-0  62754-4 0  9998,2 52313  53.2178 324.8641 0000707  95.8607 264.2466 15.08842418 62660,6917.873,95.437,540.227,539.249,0.0
52313.0,STARLINK-3749,PAYLOAD,2023-05-30 18:54:45,15.08841722,7.37e-05,53.218,320.7,105.4926,254.6147,6.6594e-05,7.72e-06,0.0,0 STARLINK-3749,1 52313U 22041BE  23150.78802919  .00000772  00000-0  66594-4 0  9998,2 52313  53.2180 320.7000 0000737 105.4926 254.6147 15.08841722 62804,6917.875,95.437,540.25,539.23,0.0
52313.0,STARLINK-3749,PAYLOAD,2023-05-31 10:48:37,15.08834344,6.8e-05,53.2178,317.7277,85.1464,274.9606,0.00011102,1.479e-05,0.0,0 STARLINK-3749,1 52313U 22041BE  23151.45043328  .00001479  00000-0  11102-3 0  9993,2 52313  53.2178 317.7277 0000680  85.1464 274.9606 15.08834344 62909,6917.898,95.438,540.233,539.292,0.0
52313.0,STARLINK-3749,PAYLOAD,2023-05-31 18:45:32,15.08848078,6.84e-05,53.2176,316.2414,86.7888,273.3182,8.2693e-05,1.029e-05,0.0,0 STARLINK-3749,1 52313U 22041BE  23151.78162569  .00001029  00000-0  82693-4 0  9993,2 52313  53.2176 316.2414 0000684  86.7888 273.3182 15.08848078 62951,6917.856,95.437,540.194,539.248,0.0
52313.0,STARLINK-3749,PAYLOAD,2023-06-01 04:17:51,15.08844247,6.19e-05,53.2174,314.4581,91.4873,268.619,6.2487e-05,7.07e-06,0.0,0 STARLINK-3749,1 52313U 22041BE  23152.17906793  .00000707  00000-0  62487-4 0  9993,2 52313  53.2174 314.4581 0000619  91.4873 268.6190 15.08844247 63017,6917.867,95.437,540.161,539.304,0.0
52313.0,STARLINK-3749,PAYLOAD,2023-06-02 10:30:11,15.0883355,8.81e-05,53.2184,308.8102,66.342,293.7664,3.0369e-07,-2.83e-06,0.0,0 STARLINK-3749,1 52313U 22041BE  23153.43763738 -.00000283  00000-0  30369-6 0  9999,2 52313  53.2184 308.8102 0000881  66.3420 293.7664 15.08833550 63205,6917.9,95.438,540.375,539.156,0.0
52313.0,STARLINK-3749,PAYLOAD,2023-06-02 13:40:58,15.08833423,8.11e-05,53.2177,308.2148,69.9236,290.1843,3.0013e-06,-2.4e-06,0.0,0 STARLINK-3749,1 52313U 22041BE  23153.57011772 -.00000240  00000-0  30013-5 0  9996,2 52313  53.2177 308.2148 0000811  69.9236 290.1843 15.08833423 63229,6917.9,95.438,540.327,539.204,0.0
52313.0,STARLINK-3749,PAYLOAD,2023-06-02 16:51:44,15.08840916,8.19e-05,53.2185,307.6176,93.5122,266.5963,-2.964e-05,-7.59e-06,0.0,0 STARLINK-3749,1 52313U 22041BE  23153.70259394 -.00000759  00000-0 -29640-4 0  9994,2 52313  53.2185 307.6176 0000819  93.5122 266.5963 15.08840916 63244,6917.878,95.437,540.309,539.176,0.0
52313.0,STARLINK-3749,PAYLOAD,2023-06-03 13:31:45,15.08836372,7.38e-05,53.2186,303.753,95.2695,264.8382,5.332e-05,5.61e-06,0.0,0 STARLINK-3749,1 52313U 22041BE  23154.56371557  .00000561  00000-0  53320-4 0  9996,2 52313  53.2186 303.7530 0000738  95.2695 264.8382 15.08836372 63371,6917.891,95.438,540.267,539.246,0.0
52313.0,STARLINK-3749,PAYLOAD,2023-06-03 16:42:31,15.08837923,4.69e-05,53.2178,303.1588,88.4646,271.64,9.1456e-05,1.168e-05,0.0,0 STARLINK-3749,1 52313U 22041BE  23154.69619326  .00001168  00000-0  91456-4 0  9995,2 52313  53.2178 303.1588 0000469  88.4646 271.6400 15.08837923 63392,6917.887,95.438,540.076,539.427,0.0
52313.0,STARLINK-3749,PAYLOAD,2023-06-04 14:57:55,15.08837552,6.75e-05,53.2171,298.9954,95.5792,264.5277,0.00010529,1.388e-05,0.0,0 STARLINK-3749,1 52313U 22041BE  23155.62355560  .00001388  00000-0  10529-3 0  9991,2 52313  53.2171 298.9954 0000675  95.5792 264.5277 15.08837552 63530,6917.888,95.438,540.22,539.286,0.0
52313.0,STARLINK-3749,PAYLOAD,2023-06-04 19:44:04,15.08843859,6.56e-05,53.2171,298.1026,93.122,266.9847,0.00012718,1.737e-05,0.0,0 STARLINK-3749,1 52313U 22041BE  23155.82227109  .00001737  00000-0  12718-3 0  9990,2 52313  53.2171 298.1026 0000656  93.1220 266.9847 15.08843859 63560,6917.869,95.437,540.187,539.28,0.0
52313.0,STARLINK-3749,PAYLOAD,2023-06-05 08:27:09,15.08839056,7.48e-05,53.2175,295.722,87.4053,272.7025,3.3496e-05,2.45e-06,0.0,0 STARLINK-3749,1 52313U 22041BE  23156.35219782  .00000245  00000-0  33496-4 0  9997,2 52313  53.2175 295.7220 0000748  87.4053 272.7025 15.08839056 63641,6917.883,95.438,540.266,539.231,0.0
52313.0,STARLINK-3749,PAYLOAD,2023-06-05 13:13:19,15.08840274,6.89e-05,53.2173,294.8309,87.1662,272.9409,4.5534e-05,4.37e-06,0.0,0 STARLINK-3749,1 52313U 22041BE  23156.55091680  .00000437  00000-0  45534-4 0  9993,2 52313  53.2173 294.8309 0000689  87.1662 272.9409 15.08840274 63679,6917.88,95.438,540.221,539.268,0.0
